[{"OBJECT_NAME":"STARLINK-33869","OBJECT_ID":"2025-091R","EPOCH":"2026-03-09T22:35:43.173888","MEAN_MOTION":15.27610281,"ECCENTRICITY":0.00015733,"INCLINATION":42.9958,"RA_OF_ASC_NODE":50.8469,"ARG_OF_PERICENTER":94.4288,"MEAN_ANOMALY":265.6744,"EPHEMERIS_TYPE":0,"CLASSIFICATION_TYPE":"U","NORAD_CAT_ID":63790,"ELEMENT_SET_NO":999,"REV_AT_EPOCH":4889,"BSTAR":0.00094604111,"MEAN_MOTION_DOT":0.00025887,"MEAN_MOTION_DDOT":0},{"OBJECT_NAME":"COSMOS 1953","OBJECT_ID":"1988-050A","EPOCH":"2026-03-09T18:09:26.993952","MEAN_MOTION":15.28528086,"ECCENTRICITY":0.00124769,"INCLINATION":82.5105,"RA_OF_ASC_NODE":158.18,"ARG_OF_PERICENTER":122.2454,"MEAN_ANOMALY":237.9996,"EPHEMERIS_TYPE":0,"CLASSIFICATION_TYPE":"U","NORAD_CAT_ID":19210,"ELEMENT_SET_NO":999,"REV_AT_EPOCH":3779,"BSTAR":0.00029210954,"MEAN_MOTION_DOT":8.158e-5,"MEAN_MOTION_DDOT":0}]
